{"type": "FeatureCollection", "features": [ {"type": "Feature", "properties": {"norad_id": 66722, "name": "FLOCK 4H-19", "group": "last-30-days", "lat": 72.06369738243285, "lon": 41.71151203328145, "alt_km": 504.34897006892334, "timestamp": "2025-12-19T20:42:58.812651+00:00", "meta": {"OBJECT_NAME": "FLOCK 4H-19", "OBJECT_ID": "2025-276BJ", "EPOCH": "2025-12-19T04:34:29.040096", "MEAN_MOTION": 15.1818714, "ECCENTRICITY": 0.00020655, "INCLINATION": 97.4399, "RA_OF_ASC_NODE": 64.8603, "ARG_OF_PERICENTER": 164.6735, "MEAN_ANOMALY": 195.4562, "EPHEMERIS_TYPE": 0, "CLASSIFICATION_TYPE": "U", "NORAD_CAT_ID": 66722, "ELEMENT_SET_NO": 999, "REV_AT_EPOCH": 239, "BSTAR": 0.00021815679, "MEAN_MOTION_DOT": 4.392e-05, "MEAN_MOTION_DDOT": 0}, "tle": {"line1": "1 66722U 25276BJ  25353.19061389  .00004392  00000+0  21816-3 0  9998", "line2": "2 66722  97.4399  64.8603 0002065 164.6735 195.4562 15.18187140  2390"}}, "geometry": {"type": "Point", "coordinates": [41.71151203328145, 72.06369738243285]}}, {"type": "Feature", "properties": {"norad_id": 66723, "name": "FLOCK 4H-20", "group": "last-30-days", "lat": 74.46679180916003, "lon": 37.47549097411078, "alt_km": 504.4589194122682, "timestamp": "2025-12-19T20:42:58.812662+00:00", "meta": {"OBJECT_NAME": "FLOCK 4H-20", "OBJECT_ID": "2025-276BK", "EPOCH": "2025-12-19T04:33:48.590208", "MEAN_MOTION": 15.18246329, "ECCENTRICITY": 0.00025203, "INCLINATION": 97.4437, "RA_OF_ASC_NODE": 64.8728, "ARG_OF_PERICENTER": 182.8257, "MEAN_ANOMALY": 177.2963, "EPHEMERIS_TYPE": 0, "CLASSIFICATION_TYPE": "U", "NORAD_CAT_ID": 66723, "ELEMENT_SET_NO": 999, "REV_AT_EPOCH": 235, "BSTAR": 0.00026468376, "MEAN_MOTION_DOT": 5.353e-05, "MEAN_MOTION_DDOT": 0}, "tle": {"line1": "1 66723U 25276BK  25353.19014572  .00005353  00000+0  26468-3 0  9997", "line2": "2 66723  97.4437  64.8728 0002520 182.8257 177.2963 15.18246329  2353"}}, "geometry": {"type": "Point", "coordinates": [37.47549097411078, 74.46679180916003]}}, {"type": "Feature", "properties": {"norad_id": 66724, "name": "FLOCK 4H-21", "group": "last-30-days", "lat": 76.4598393122867, "lon": 32.65834944176694, "alt_km": 503.9162420442781, "timestamp": "2025-12-19T20:42:58.812673+00:00", "meta": {"OBJECT_NAME": "FLOCK 4H-21", "OBJECT_ID": "2025-276BL", "EPOCH": "2025-12-19T04:33:14.375808", "MEAN_MOTION": 15.18310124, "ECCENTRICITY": 0.00021925, "INCLINATION": 97.4403, "RA_OF_ASC_NODE": 64.8609, "ARG_OF_PERICENTER": 178.4774, "MEAN_ANOMALY": 181.6467, "EPHEMERIS_TYPE": 0, "CLASSIFICATION_TYPE": "U", "NORAD_CAT_ID": 66724, "ELEMENT_SET_NO": 999, "REV_AT_EPOCH": 235, "BSTAR": 0.00029733144, "MEAN_MOTION_DOT": 6.033e-05, "MEAN_MOTION_DDOT": 0}, "tle": {"line1": "1 66724U 25276BL  25353.18974972  .00006033  00000+0  29733-3 0  9990", "line2": "2 66724  97.4403  64.8609 0002192 178.4774 181.6467 15.18310124  2358"}}, "geometry": {"type": "Point", "coordinates": [32.65834944176694, 76.4598393122867]}}, {"type": "Feature", "properties": {"norad_id": 66725, "name": "FLOCK 4H-22", "group": "last-30-days", "lat": 14.808659332648356, "lon": 63.51225906356105, "alt_km": 513.9794997919153, "timestamp": "2025-12-19T20:42:58.812683+00:00", "meta": {"OBJECT_NAME": "FLOCK 4H-22", "OBJECT_ID": "2025-276BM", "EPOCH": "2025-12-19T04:49:28.680096", "MEAN_MOTION": 15.17447217, "ECCENTRICITY": 0.00016972, "INCLINATION": 97.4389, "RA_OF_ASC_NODE": 64.8415, "ARG_OF_PERICENTER": 314.077, "MEAN_ANOMALY": 46.0324, "EPHEMERIS_TYPE": 0, "CLASSIFICATION_TYPE": "U", "NORAD_CAT_ID": 66725, "ELEMENT_SET_NO": 999, "REV_AT_EPOCH": 310, "BSTAR": 0.00023589792, "MEAN_MOTION_DOT": 4.654e-05, "MEAN_MOTION_DDOT": 0}, "tle": {"line1": "1 66725U 25276BM  25353.20102639  .00004654  00000+0  23590-3 0  9999", "line2": "2 66725  97.4389  64.8415 0001697 314.0770  46.0324 15.17447217  3103"}}, "geometry": {"type": "Point", "coordinates": [63.51225906356105, 14.808659332648356]}}, {"type": "Feature", "properties": {"norad_id": 66726, "name": "FLOCK 4H-23", "group": "last-30-days", "lat": -1.719894782199469, "lon": 65.73110344334478, "alt_km": 518.012032613512, "timestamp": "2025-12-19T20:42:58.812693+00:00", "meta": {"OBJECT_NAME": "FLOCK 4H-23", "OBJECT_ID": "2025-276BN", "EPOCH": "2025-12-19T03:18:44.100288", "MEAN_MOTION": 15.17183475, "ECCENTRICITY": 0.00032998, "INCLINATION": 97.4454, "RA_OF_ASC_NODE": 64.7936, "ARG_OF_PERICENTER": 261.5822, "MEAN_ANOMALY": 98.5037, "EPHEMERIS_TYPE": 0, "CLASSIFICATION_TYPE": "U", "NORAD_CAT_ID": 66726, "ELEMENT_SET_NO": 999, "REV_AT_EPOCH": 309, "BSTAR": 0.0002366124, "MEAN_MOTION_DOT": 4.634e-05, "MEAN_MOTION_DDOT": 0}, "tle": {"line1": "1 66726U 25276BN  25353.13801042  .00004634  00000+0  23661-3 0  9993", "line2": "2 66726  97.4454  64.7936 0003299 261.5822  98.5037 15.17183475  3092"}}, "geometry": {"type": "Point", "coordinates": [65.73110344334478, -1.719894782199469]}}, {"type": "Feature", "properties": {"norad_id": 66727, "name": "FLOCK 4H-24", "group": "last-30-days", "lat": 6.2224833960047725, "lon": 64.69505781155911, "alt_km": 516.0709180568401, "timestamp": "2025-12-19T20:42:58.812703+00:00", "meta": {"OBJECT_NAME": "FLOCK 4H-24", "OBJECT_ID": "2025-276BP", "EPOCH": "2025-12-18T03:32:11.679360", "MEAN_MOTION": 15.17280922, "ECCENTRICITY": 0.00028352, "INCLINATION": 97.4453, "RA_OF_ASC_NODE": 63.8259, "ARG_OF_PERICENTER": 287.616, "MEAN_ANOMALY": 72.4763, "EPHEMERIS_TYPE": 0, "CLASSIFICATION_TYPE": "U", "NORAD_CAT_ID": 66727, "ELEMENT_SET_NO": 999, "REV_AT_EPOCH": 294, "BSTAR": 0.00024028867, "MEAN_MOTION_DOT": 4.72e-05, "MEAN_MOTION_DDOT": 0}, "tle": {"line1": "1 66727U 25276BP  25352.14735740  .00004720  00000+0  24029-3 0  9990", "line2": "2 66727  97.4453  63.8259 0002835 287.6160  72.4763 15.17280922  2944"}}, "geometry": {"type": "Point", "coordinates": [64.69505781155911, 6.2224833960047725]}}, {"type": "Feature", "properties": {"norad_id": 66728, "name": "FLOCK 4H-25", "group": "last-30-days", "lat": 72.15840494954668, "lon": 41.56814631677288, "alt_km": 503.6596088469487, "timestamp": "2025-12-19T20:42:58.812713+00:00", "meta": {"OBJECT_NAME": "FLOCK 4H-25", "OBJECT_ID": "2025-276BQ", "EPOCH": "2025-12-19T02:59:32.399520", "MEAN_MOTION": 15.18170184, "ECCENTRICITY": 0.00015066, "INCLINATION": 97.4411, "RA_OF_ASC_NODE": 64.7996, "ARG_OF_PERICENTER": 118.9209, "MEAN_ANOMALY": 241.2177, "EPHEMERIS_TYPE": 0, "CLASSIFICATION_TYPE": "U", "NORAD_CAT_ID": 66728, "ELEMENT_SET_NO": 999, "REV_AT_EPOCH": 237, "BSTAR": 0.00022086474, "MEAN_MOTION_DOT": 4.445e-05, "MEAN_MOTION_DDOT": 0}, "tle": {"line1": "1 66728U 25276BQ  25353.12468055  .00004445  00000+0  22086-3 0  9997", "line2": "2 66728  97.4411  64.7996 0001506 118.9209 241.2177 15.18170184  2372"}}, "geometry": {"type": "Point", "coordinates": [41.56814631677288, 72.15840494954668]}}, {"type": "Feature", "properties": {"norad_id": 66729, "name": "FLOCK 4H-26", "group": "last-30-days", "lat": -9.01915768016758, "lon": 66.67871446775763, "alt_km": 518.0205426112016, "timestamp": "2025-12-19T20:42:58.812723+00:00", "meta": {"OBJECT_NAME": "FLOCK 4H-26", "OBJECT_ID": "2025-276BR", "EPOCH": "2025-12-19T03:20:37.560768", "MEAN_MOTION": 15.17109728, "ECCENTRICITY": 0.00038018, "INCLINATION": 97.441, "RA_OF_ASC_NODE": 64.7793, "ARG_OF_PERICENTER": 279.504, "MEAN_ANOMALY": 80.5764, "EPHEMERIS_TYPE": 0, "CLASSIFICATION_TYPE": "U", "NORAD_CAT_ID": 66729, "ELEMENT_SET_NO": 999, "REV_AT_EPOCH": 309, "BSTAR": 0.00021775098, "MEAN_MOTION_DOT": 4.25e-05, "MEAN_MOTION_DDOT": 0}, "tle": {"line1": "1 66729U 25276BR  25353.13932362  .00004250  00000+0  21775-3 0  9994", "line2": "2 66729  97.4410  64.7793 0003801 279.5040  80.5764 15.17109728  3095"}}, "geometry": {"type": "Point", "coordinates": [66.67871446775763, -9.01915768016758]}}, {"type": "Feature", "properties": {"norad_id": 66730, "name": "FLOCK 4H-27", "group": "last-30-days", "lat": 62.543141333952335, "lon": 50.951711364779406, "alt_km": 505.3770908788674, "timestamp": "2025-12-19T20:42:58.812736+00:00", "meta": {"OBJECT_NAME": "FLOCK 4H-27", "OBJECT_ID": "2025-276BS", "EPOCH": "2025-12-19T04:37:03.717696", "MEAN_MOTION": 15.18038544, "ECCENTRICITY": 0.00010026, "INCLINATION": 97.4386, "RA_OF_ASC_NODE": 64.8554, "ARG_OF_PERICENTER": 129.1387, "MEAN_ANOMALY": 230.9936, "EPHEMERIS_TYPE": 0, "CLASSIFICATION_TYPE": "U", "NORAD_CAT_ID": 66730, "ELEMENT_SET_NO": 999, "REV_AT_EPOCH": 310, "BSTAR": 0.00020390043, "MEAN_MOTION_DOT": 4.083e-05, "MEAN_MOTION_DDOT": 0}, "tle": {"line1": "1 66730U 25276BS  25353.19240414  .00004083  00000+0  20390-3 0  9998", "line2": "2 66730  97.4386  64.8554 0001002 129.1387 230.9936 15.18038544  3102"}}, "geometry": {"type": "Point", "coordinates": [50.951711364779406, 62.543141333952335]}}, {"type": "Feature", "properties": {"norad_id": 66731, "name": "FLOCK 4H-28", "group": "last-30-days", "lat": -7.182834083674589, "lon": 66.43110044026666, "alt_km": 517.9341011026781, "timestamp": "2025-12-19T20:42:58.812747+00:00", "meta": {"OBJECT_NAME": "FLOCK 4H-28", "OBJECT_ID": "2025-276BT", "EPOCH": "2025-12-19T03:20:07.763136", "MEAN_MOTION": 15.17098094, "ECCENTRICITY": 0.00032499, "INCLINATION": 97.4396, "RA_OF_ASC_NODE": 64.7766, "ARG_OF_PERICENTER": 281.8247, "MEAN_ANOMALY": 78.2622, "EPHEMERIS_TYPE": 0, "CLASSIFICATION_TYPE": "U", "NORAD_CAT_ID": 66731, "ELEMENT_SET_NO": 999, "REV_AT_EPOCH": 309, "BSTAR": 0.00021983589, "MEAN_MOTION_DOT": 4.29e-05, "MEAN_MOTION_DDOT": 0}, "tle": {"line1": "1 66731U 25276BT  25353.13897874  .00004290  00000+0  21984-3 0  9991", "line2": "2 66731  97.4396  64.7766 0003249 281.8247  78.2622 15.17098094  3092"}}, "geometry": {"type": "Point", "coordinates": [66.43110044026666, -7.182834083674589]}}]}